ONEWEB-0517             
1 54135U 22138Y   24004.33688247  .00000125  00000+0  28062-3 0  9993
2 54135  87.9203 123.0962 0001470 114.3243 245.8044 13.19726191 58800
ONEWEB-0518             
1 54136U 22138Z   24004.35583965  .00000094  00000+0  20336-3 0  9998
2 54136  87.9210 123.0954 0001437 107.1303 252.9987 13.19727055 58805
ONEWEB-0519             
1 54137U 22138AA  24004.38110313 -.00000264  00000+0 -69061-3 0  9994
2 54137  87.9201 123.0847 0001474 124.9212 235.2059 13.19725338 58811
ONEWEB-0520             
1 54138U 22138AB  24004.34004111  .00000078  00000+0  16231-3 0  9991
2 54138  87.9202 123.0950 0001759 118.8839 241.2470 13.19726862 58795
ONEWEB-0521             
1 54139U 22138AC  24004.37321493  .00000062  00000+0  12202-3 0  9997
2 54139  87.9201 123.0838 0001333  99.3367 260.7916 13.19725725 58740
ONEWEB-0522             
1 54140U 22138AD  24004.35267480 -.00000204  00000+0 -54234-3 0  9993
2 54140  87.9201 123.0905 0001694 107.7293 252.4024 13.19725282 58789
ONEWEB-0523             
1 54141U 22138AE  24004.19128127  .00000086  00000+0  18022-3 0  9991
2 54141  87.9197  92.5952 0001992  73.1130 287.0222 13.20773353 61167
ONEWEB-0524             
1 54142U 22138AF  24004.25596993  .00000086  00000+0  18017-3 0  9993
2 54142  87.9198  92.5863 0002876  92.6550 267.4913 13.20770346 61173
